{"type":"FeatureCollection","attribution":"© OpenStreetMap contributors, ODbL 1.0","source":"openstreetmap.org via Overpass API, amenity=bus_station","region":"Kathmandu valley (27.62–27.86 N, 85.20–85.50 E)","note":"Mapped bus stations. Most are unnamed in OSM, which is itself information: a stop exists at these coordinates but the map does not say what it is called.","features":[{"type":"Feature","properties":{"n":"Macha Pokhari Bus Station"},"geometry":{"type":"Point","coordinates":[85.305724,27.735352]}},{"type":"Feature","properties":{},"geometry":{"type":"Point","coordinates":[85.31422,27.705701]}},{"type":"Feature","properties":{"n":"Dhokashi"},"geometry":{"type":"Point","coordinates":[85.279034,27.670661]}},{"type":"Feature","properties":{"n":"Kathmandu Bus Park"},"geometry":{"type":"Point","coordinates":[85.423097,27.672077]}},{"type":"Feature","properties":{"n":"Lubhu Bus Station"},"geometry":{"type":"Point","coordinates":[85.373347,27.642768]}},{"type":"Feature","properties":{"n":"Budhanilkantha Stop"},"geometry":{"type":"Point","coordinates":[85.362086,27.776832]}},{"type":"Feature","properties":{"n":"Patan Dhoka"},"geometry":{"type":"Point","coordinates":[85.320748,27.679119]}},{"type":"Feature","properties":{"n":"Machhegaon"},"geometry":{"type":"Point","coordinates":[85.254202,27.665065]}},{"type":"Feature","properties":{"n":"पुरानो बानेश्वोर स्टेश १"},"geometry":{"type":"Point","coordinates":[85.34102,27.702808]}},{"type":"Feature","properties":{"n":"Old Baneshwar Tempo Station"},"geometry":{"type":"Point","coordinates":[85.339887,27.701104]}},{"type":"Feature","properties":{"n":"Sarkari Dhara"},"geometry":{"type":"Point","coordinates":[85.314237,27.726638]}},{"type":"Feature","properties":{"n":"Nag Dhunga"},"geometry":{"type":"Point","coordinates":[85.209126,27.699471]}},{"type":"Feature","properties":{"n":"Dhapasi Height Micro Station"},"geometry":{"type":"Point","coordinates":[85.338058,27.749862]}},{"type":"Feature","properties":{"n":"Sunjarijal Bus Stop"},"geometry":{"type":"Point","coordinates":[85.420654,27.759287]}},{"type":"Feature","properties":{"n":"School Bus Stop"},"geometry":{"type":"Point","coordinates":[85.358944,27.649797]}},{"type":"Feature","properties":{"n":"Nilo micro park"},"geometry":{"type":"Point","coordinates":[85.36024,27.734881]}},{"type":"Feature","properties":{"n":"Bode Bus Station"},"geometry":{"type":"Point","coordinates":[85.390437,27.689874]}},{"type":"Feature","properties":{"n":"Buses to Delhi Bus station"},"geometry":{"type":"Point","coordinates":[85.364192,27.720964]}},{"type":"Feature","properties":{"n":"Dholahiti bus station"},"geometry":{"type":"Point","coordinates":[85.318448,27.640322]}},{"type":"Feature","properties":{"n":"Danchhi Bus Station"},"geometry":{"type":"Point","coordinates":[85.414722,27.726955]}},{"type":"Feature","properties":{"n":"Tiwari Tol"},"geometry":{"type":"Point","coordinates":[85.393911,27.719082]}},{"type":"Feature","properties":{"n":"Milan Chowk"},"geometry":{"type":"Point","coordinates":[85.39826,27.715716]}},{"type":"Feature","properties":{"n":"Lamatar Dhungin Bus Park"},"geometry":{"type":"Point","coordinates":[85.395238,27.627984]}},{"type":"Feature","properties":{"n":"New Bus Stand"},"geometry":{"type":"Point","coordinates":[85.3079,27.733354]}},{"type":"Feature","properties":{"n":"पर्यटक बस स्टेशन"},"geometry":{"type":"Point","coordinates":[85.315117,27.711622]}},{"type":"Feature","properties":{"n":"Micro Bus Station"},"geometry":{"type":"Point","coordinates":[85.326181,27.656971]}},{"type":"Feature","properties":{"n":"Chunikhel Bus station"},"geometry":{"type":"Point","coordinates":[85.367443,27.753447]}},{"type":"Feature","properties":{"n":"चाबहिल बस स्टेशन"},"geometry":{"type":"Point","coordinates":[85.34694,27.717901]}},{"type":"Feature","properties":{"n":"Boratar Micro Station"},"geometry":{"type":"Point","coordinates":[85.295572,27.735681]}},{"type":"Feature","properties":{"n":"Baniyataar Micro Station"},"geometry":{"type":"Point","coordinates":[85.318639,27.753789]}},{"type":"Feature","properties":{"n":"Lubhu Bus Park"},"geometry":{"type":"Point","coordinates":[85.374614,27.642894]}},{"type":"Feature","properties":{"n":"suryabinyak"},"geometry":{"type":"Point","coordinates":[85.427175,27.665345]}},{"type":"Feature","properties":{"n":"Saraswatikhel buspark"},"geometry":{"type":"Point","coordinates":[85.399506,27.694894]}},{"type":"Feature","properties":{"n":"Duwakot buspark"},"geometry":{"type":"Point","coordinates":[85.425849,27.712272]}},{"type":"Feature","properties":{},"geometry":{"type":"Point","coordinates":[85.41862,27.716809]}},{"type":"Feature","properties":{"n":"Bus to Besisahar"},"geometry":{"type":"Point","coordinates":[85.310339,27.734553]}},{"type":"Feature","properties":{},"geometry":{"type":"Point","coordinates":[85.474626,27.712389]}},{"type":"Feature","properties":{},"geometry":{"type":"Point","coordinates":[85.365991,27.666775]}},{"type":"Feature","properties":{"n":"Toudol Micro Station"},"geometry":{"type":"Point","coordinates":[85.290958,27.738459]}},{"type":"Feature","properties":{},"geometry":{"type":"Point","coordinates":[85.328309,27.755192]}},{"type":"Feature","properties":{},"geometry":{"type":"Point","coordinates":[85.35889,27.736711]}},{"type":"Feature","properties":{},"geometry":{"type":"Point","coordinates":[85.366705,27.665034]}},{"type":"Feature","properties":{},"geometry":{"type":"Point","coordinates":[85.369745,27.661086]}},{"type":"Feature","properties":{"n":"नाख्खु बस स्टप"},"geometry":{"type":"Point","coordinates":[85.30577,27.661586]}},{"type":"Feature","properties":{},"geometry":{"type":"Point","coordinates":[85.351224,27.71997]}},{"type":"Feature","properties":{},"geometry":{"type":"Point","coordinates":[85.384462,27.737203]}},{"type":"Feature","properties":{},"geometry":{"type":"Point","coordinates":[85.281585,27.694197]}},{"type":"Feature","properties":{"n":"Dhading Bus Park"},"geometry":{"type":"Point","coordinates":[85.306338,27.734772]}},{"type":"Feature","properties":{},"geometry":{"type":"Point","coordinates":[85.287532,27.719846]}},{"type":"Feature","properties":{},"geometry":{"type":"Point","coordinates":[85.309691,27.734858]}},{"type":"Feature","properties":{},"geometry":{"type":"Point","coordinates":[85.361129,27.774859]}},{"type":"Feature","properties":{},"geometry":{"type":"Point","coordinates":[85.300572,27.636004]}},{"type":"Feature","properties":{},"geometry":{"type":"Point","coordinates":[85.336578,27.739376]}},{"type":"Feature","properties":{},"geometry":{"type":"Point","coordinates":[85.297478,27.724673]}},{"type":"Feature","properties":{},"geometry":{"type":"Point","coordinates":[85.349563,27.732555]}},{"type":"Feature","properties":{},"geometry":{"type":"Point","coordinates":[85.306087,27.7484]}},{"type":"Feature","properties":{},"geometry":{"type":"Point","coordinates":[85.307716,27.75274]}},{"type":"Feature","properties":{},"geometry":{"type":"Point","coordinates":[85.282984,27.774096]}},{"type":"Feature","properties":{},"geometry":{"type":"Point","coordinates":[85.301624,27.748841]}},{"type":"Feature","properties":{},"geometry":{"type":"Point","coordinates":[85.340746,27.749177]}},{"type":"Feature","properties":{},"geometry":{"type":"Point","coordinates":[85.366783,27.694052]}},{"type":"Feature","properties":{},"geometry":{"type":"Point","coordinates":[85.279802,27.722476]}},{"type":"Feature","properties":{},"geometry":{"type":"Point","coordinates":[85.386664,27.73649]}},{"type":"Feature","properties":{},"geometry":{"type":"Point","coordinates":[85.312171,27.751836]}},{"type":"Feature","properties":{},"geometry":{"type":"Point","coordinates":[85.381117,27.732875]}},{"type":"Feature","properties":{"n":"Tusal Bus stop"},"geometry":{"type":"Point","coordinates":[85.357863,27.720135]}},{"type":"Feature","properties":{},"geometry":{"type":"Point","coordinates":[85.368444,27.721267]}},{"type":"Feature","properties":{},"geometry":{"type":"Point","coordinates":[85.393392,27.637426]}},{"type":"Feature","properties":{},"geometry":{"type":"Point","coordinates":[85.465303,27.731071]}},{"type":"Feature","properties":{},"geometry":{"type":"Point","coordinates":[85.425054,27.74402]}},{"type":"Feature","properties":{},"geometry":{"type":"Point","coordinates":[85.375566,27.720643]}},{"type":"Feature","properties":{},"geometry":{"type":"Point","coordinates":[85.398239,27.677201]}},{"type":"Feature","properties":{},"geometry":{"type":"Point","coordinates":[85.271155,27.72261]}},{"type":"Feature","properties":{},"geometry":{"type":"Point","coordinates":[85.305812,27.735241]}},{"type":"Feature","properties":{},"geometry":{"type":"Point","coordinates":[85.300932,27.785062]}},{"type":"Feature","properties":{},"geometry":{"type":"Point","coordinates":[85.381118,27.739593]}},{"type":"Feature","properties":{"n":"खहर चोक"},"geometry":{"type":"Point","coordinates":[85.355221,27.728892]}},{"type":"Feature","properties":{},"geometry":{"type":"Point","coordinates":[85.35502,27.695266]}},{"type":"Feature","properties":{"n":"माइक्रोबस स्टप"},"geometry":{"type":"Point","coordinates":[85.303268,27.713873]}},{"type":"Feature","properties":{"n":"Bus Stop"},"geometry":{"type":"Point","coordinates":[85.302662,27.71349]}},{"type":"Feature","properties":{},"geometry":{"type":"Point","coordinates":[85.305728,27.631388]}},{"type":"Feature","properties":{},"geometry":{"type":"Point","coordinates":[85.304701,27.642248]}},{"type":"Feature","properties":{},"geometry":{"type":"Point","coordinates":[85.283304,27.724119]}},{"type":"Feature","properties":{},"geometry":{"type":"Point","coordinates":[85.30248,27.708675]}},{"type":"Feature","properties":{},"geometry":{"type":"Point","coordinates":[85.301114,27.714059]}},{"type":"Feature","properties":{},"geometry":{"type":"Point","coordinates":[85.30524,27.649154]}},{"type":"Feature","properties":{"n":"Buddhanilkantha Bus Stop"},"geometry":{"type":"Point","coordinates":[85.361867,27.776204]}},{"type":"Feature","properties":{},"geometry":{"type":"Point","coordinates":[85.412671,27.707688]}},{"type":"Feature","properties":{},"geometry":{"type":"Point","coordinates":[85.382649,27.721592]}},{"type":"Feature","properties":{},"geometry":{"type":"Point","coordinates":[85.376726,27.700996]}},{"type":"Feature","properties":{},"geometry":{"type":"Point","coordinates":[85.310726,27.734337]}},{"type":"Feature","properties":{},"geometry":{"type":"Point","coordinates":[85.316845,27.706126]}},{"type":"Feature","properties":{},"geometry":{"type":"Point","coordinates":[85.314897,27.663912]}},{"type":"Feature","properties":{},"geometry":{"type":"Point","coordinates":[85.281698,27.693576]}},{"type":"Feature","properties":{},"geometry":{"type":"Point","coordinates":[85.305739,27.735193]}},{"type":"Feature","properties":{},"geometry":{"type":"Point","coordinates":[85.321245,27.693892]}},{"type":"Feature","properties":{"n":"Gopi Krishna Bus stop"},"geometry":{"type":"Point","coordinates":[85.345727,27.721682]}},{"type":"Feature","properties":{"n":"Sukedhara"},"geometry":{"type":"Point","coordinates":[85.345722,27.727969]}},{"type":"Feature","properties":{"n":"Dhumbarahi bus stop"},"geometry":{"type":"Point","coordinates":[85.344502,27.731557]}},{"type":"Feature","properties":{"n":"Nepal Yatayat Bus Station"},"geometry":{"type":"Point","coordinates":[85.392777,27.712517]}},{"type":"Feature","properties":{"n":"Sajha Yatayat"},"geometry":{"type":"Point","coordinates":[85.35693,27.700852]}},{"type":"Feature","properties":{},"geometry":{"type":"Point","coordinates":[85.382802,27.650414]}},{"type":"Feature","properties":{"n":"Laboratory School Bus Station"},"geometry":{"type":"Point","coordinates":[85.29388,27.677154]}},{"type":"Feature","properties":{"n":"Makalbari Bus Station"},"geometry":{"type":"Point","coordinates":[85.38682,27.737394]}},{"type":"Feature","properties":{"n":"आचार्य टोल"},"geometry":{"type":"Point","coordinates":[85.262348,27.697411]}},{"type":"Feature","properties":{"n":"नेपाल यातायात बसपार्क"},"geometry":{"type":"Point","coordinates":[85.342679,27.672931]}},{"type":"Feature","properties":{"n":"Miteri Yatayat"},"geometry":{"type":"Point","coordinates":[85.311725,27.735148]}},{"type":"Feature","properties":{},"geometry":{"type":"Point","coordinates":[85.407227,27.67193]}},{"type":"Feature","properties":{},"geometry":{"type":"Point","coordinates":[85.378441,27.70281]}},{"type":"Feature","properties":{},"geometry":{"type":"Point","coordinates":[85.378726,27.70278]}},{"type":"Feature","properties":{"n":"Shantinagar Ratnapark Bus Station"},"geometry":{"type":"Point","coordinates":[85.323409,27.641904]}},{"type":"Feature","properties":{"n":"Budhanilkantha Bus Station"},"geometry":{"type":"Point","coordinates":[85.360444,27.778365]}},{"type":"Feature","properties":{"n":"PulPari"},"geometry":{"type":"Point","coordinates":[85.437672,27.66989]}},{"type":"Feature","properties":{},"geometry":{"type":"Point","coordinates":[85.287427,27.730089]}},{"type":"Feature","properties":{},"geometry":{"type":"Point","coordinates":[85.265429,27.623038]}},{"type":"Feature","properties":{},"geometry":{"type":"Point","coordinates":[85.323102,27.667176]}},{"type":"Feature","properties":{},"geometry":{"type":"Point","coordinates":[85.437186,27.676148]}},{"type":"Feature","properties":{},"geometry":{"type":"Point","coordinates":[85.294327,27.737491]}},{"type":"Feature","properties":{"n":"Shanti Chowk"},"geometry":{"type":"Point","coordinates":[85.279631,27.723998]}},{"type":"Feature","properties":{"n":"Raichowk"},"geometry":{"type":"Point","coordinates":[85.278606,27.725362]}},{"type":"Feature","properties":{},"geometry":{"type":"Point","coordinates":[85.437712,27.677613]}},{"type":"Feature","properties":{"n":"Sanopul"},"geometry":{"type":"Point","coordinates":[85.299552,27.746483]}},{"type":"Feature","properties":{"n":"Gare routière pour Changu Narayan ( 50  rps)"},"geometry":{"type":"Point","coordinates":[85.43278,27.676564]}},{"type":"Feature","properties":{"n":"Nikosera Microbus Park"},"geometry":{"type":"Point","coordinates":[85.398554,27.67921]}},{"type":"Feature","properties":{"n":"Nepal Yatayat Bus Park"},"geometry":{"type":"Point","coordinates":[85.361529,27.667224]}},{"type":"Feature","properties":{"n":"Naya Bus Park, Gongabu"},"geometry":{"type":"Point","coordinates":[85.308063,27.733165]}},{"type":"Feature","properties":{"n":"लगनखेल बस पार्क"},"geometry":{"type":"Point","coordinates":[85.32312,27.66733]}},{"type":"Feature","properties":{"n":"Bhaktapur Bus Park"},"geometry":{"type":"Point","coordinates":[85.316969,27.705645]}},{"type":"Feature","properties":{"n":"Ratnapark Micro Bus Station"},"geometry":{"type":"Point","coordinates":[85.313508,27.701599]}},{"type":"Feature","properties":{"n":"Tinkune Bus Station"},"geometry":{"type":"Point","coordinates":[85.34544,27.686263]}},{"type":"Feature","properties":{"n":"Airport Bus Station"},"geometry":{"type":"Point","coordinates":[85.354052,27.70037]}},{"type":"Feature","properties":{"n":"Greenline Travels"},"geometry":{"type":"Point","coordinates":[85.314981,27.713448]}},{"type":"Feature","properties":{"n":"Bhaktapur Bus Park"},"geometry":{"type":"Point","coordinates":[85.422514,27.670663]}},{"type":"Feature","properties":{"n":"Trolly Bus Station"},"geometry":{"type":"Point","coordinates":[85.339096,27.688583]}},{"type":"Feature","properties":{"n":"Nepal Yatayat Bus Park"},"geometry":{"type":"Point","coordinates":[85.345573,27.722383]}},{"type":"Feature","properties":{"n":"khari booat"},"geometry":{"type":"Point","coordinates":[85.306543,27.659737]}},{"type":"Feature","properties":{"n":"Nepal Yatayaat Bus Station"},"geometry":{"type":"Point","coordinates":[85.366793,27.693994]}},{"type":"Feature","properties":{},"geometry":{"type":"Point","coordinates":[85.280426,27.673131]}},{"type":"Feature","properties":{"n":"Sayukta Bus Park"},"geometry":{"type":"Point","coordinates":[85.364129,27.761979]}},{"type":"Feature","properties":{"n":"Santinagar Ratnapark MicroBus Stand"},"geometry":{"type":"Point","coordinates":[85.323447,27.64186]}},{"type":"Feature","properties":{"n":"Araniki Bus Station"},"geometry":{"type":"Point","coordinates":[85.354396,27.674585]}}]}